GPS BIIR-2  (PRN 13)    
1 24876U 97035A   21049.24001427  .00000023  00000-0  00000-0 0  9992
2 24876  55.4664 174.5618 0047233  57.2635 303.1716  2.00562635172941
GPS BIIR-4  (PRN 20)    
1 26360U 00025A   21049.39113236 -.00000038  00000-0  00000-0 0  9990
2 26360  53.6877  98.9395 0058060 165.9650 284.9114  2.00563319152263
GPS BIIR-5  (PRN 28)    
1 26407U 00040A   21049.57553082 -.00000020  00000-0  00000-0 0  9997
2 26407  55.8091 292.4460 0181464 282.4874 262.4569  2.00564550150945
GPS BIIR-8  (PRN 16)    
1 27663U 03005A   21049.38489270 -.00000022  00000-0  00000-0 0  9994
2 27663  55.8622 292.2482 0120372  36.5998 136.2138  2.00566504132309
GPS BIIR-9  (PRN 21)    
1 27704U 03010A   21049.56022289 -.00000058  00000-0  00000-0 0  9998
2 27704  54.7887  42.9571 0244440 291.6611 221.6294  2.00558513131104
GPS BIIR-10 (PRN 22)    
1 28129U 03058A   21049.43129587 -.00000037  00000-0  00000-0 0  9994
2 28129  53.4980 101.6062 0071777 299.8346  59.5197  2.00571630125782
GPS BIIR-11 (PRN 19)    
1 28190U 04009A   21048.95405189 -.00000092  00000-0  00000-0 0  9991
2 28190  56.2239 353.1149 0088067 102.3219 273.9269  2.00570470123933
GPS BIIR-13 (PRN 02)    
1 28474U 04045A   21048.79469314 -.00000061  00000-0  00000-0 0  9994
2 28474  55.1257  42.9477 0205858 271.4086 265.7426  2.00570618119418
GPS BIIRM-1 (PRN 17)    
1 28874U 05038A   21048.65359409 -.00000092  00000-0  00000-0 0  9993
2 28874  56.3132 350.5331 0137553 269.5489 270.8300  2.00578658112812
GPS BIIRM-2 (PRN 31)    
1 29486U 06042A   21046.51632119  .00000039  00000-0  00000-0 0  9994
2 29486  54.7985 228.6669 0099442  12.8511 343.9720  2.00555664105359
GPS BIIRM-3 (PRN 12)    
1 29601U 06052A   21046.46201999 -.00000031  00000-0  00000+0 0  9998
2 29601  55.8580 291.2868 0081190  67.1359 293.7812  2.00577763104393
GPS BIIRM-4 (PRN 15)    
1 32260U 07047A   21048.77391434  .00000004  00000-0  00000-0 0  9998
2 32260  53.2156 160.6276 0128678  54.8957 306.3002  2.00575438 97830
GPS BIIRM-5 (PRN 29)    
1 32384U 07062A   21049.33020052 -.00000091  00000-0  00000-0 0  9997
2 32384  56.4163 351.2093 0013282 128.3173  44.8351  2.00563168 96507
GPS BIIRM-6 (PRN 07)    
1 32711U 08012A   21049.17934104  .00000068  00000-0  00000-0 0  9994
2 32711  54.5493 227.6068 0146129 225.8439 132.9362  2.00571633 94762
GPS BIIRM-8 (PRN 05)    
1 35752U 09043A   21049.14790944 -.00000035  00000-0  00000-0 0  9991
2 35752  54.7311 105.0822 0058084  49.2009 308.5465  2.00546584 84346
GPS BIIF-1  (PRN 25)    
1 36585U 10022A   21045.92317691 -.00000025  00000-0  00000-0 0  9990
2 36585  55.1324 287.1707 0096200  53.1994 244.3412  2.00564293 78511
GPS BIIF-2  (PRN 01)    
1 37753U 11036A   21049.37688360 -.00000051  00000-0  00000-0 0  9990
2 37753  56.3423  47.6098 0102398  45.9965 312.8702  2.00562432 70267
GPS BIIF-3  (PRN 24)    
1 38833U 12053A   21048.36230570  .00000058  00000-0  00000-0 0  9990
2 38833  53.5962 223.2497 0107771  40.9370 319.8487  2.00570024 60525
GPS BIIF-4  (PRN 27)    
1 39166U 13023A   21049.22514221 -.00000092  00000-0  00000-0 0  9991
2 39166  55.9622 347.0683 0089671  31.8647 328.6837  2.00563652 56879
GPS BIIF-5  (PRN 30)    
1 39533U 14008A   21047.23030199  .00000044  00000-0  00000-0 0  9995
2 39533  53.7037 228.7552 0049302 199.4668 160.3314  2.00554739 50651
GPS BIIF-6  (PRN 06)    
1 39741U 14026A   21049.00320870 -.00000054  00000-0  00000-0 0  9993
2 39741  56.3126  47.1516 0025210 296.0730  63.6878  2.00559852 49524
GPS BIIF-7  (PRN 09)    
1 40105U 14045A   21045.60072758  .00000007  00000-0  00000-0 0  9998
2 40105  54.6126 166.2803 0017279 105.7636 254.4050  2.00575840 47020
GPS BIIF-8  (PRN 03)    
1 40294U 14068A   21048.46971057 -.00000032  00000-0  00000-0 0  9998
2 40294  55.4785 107.1451 0030983  45.6178 314.7034  2.00566193 46181
GPS BIIF-9  (PRN 26)    
1 40534U 15013A   21049.10463132 -.00000011  00000-0  00000-0 0  9995
2 40534  54.0395 284.7364 0056716  13.5268 346.6802  2.00553593 42814
GPS BIIF-10 (PRN 08)    
1 40730U 15033A   21049.26956813 -.00000092  00000-0  00000-0 0  9994
2 40730  55.4728 346.1248 0062089 356.4657   3.5018  2.00577676 40984
GPS BIIF-11 (PRN 10)    
1 41019U 15062A   21047.81645520 -.00000030  00000-0  00000-0 0  9998
2 41019  55.4721 107.0032 0065999 213.3200 146.3306  2.00563947 38799
GPS BIIF-12 (PRN 32)    
1 41328U 16007A   21049.40371401  .00000011  00000-0  00000-0 0  9990
2 41328  54.8429 166.6786 0047513 222.7004 136.9209  2.00567385 36880
GPS BIII-1  (PRN 04)    
1 43873U 18109A   21049.42434319  .00000014  00000-0  00000-0 0  9995
2 43873  55.0244 168.9948 0011822 199.1079  72.6077  2.00573416 16107
GPS BIII-2  (PRN 18)    
1 44506U 19056A   21048.26706906 -.00000059  00000-0  00000-0 0  9996
2 44506  55.4060  48.4114 0011924 184.9789 226.9033  2.00562699 11046
GPS BIII-3  (PRN 23)    
1 45854U 20041A   21049.27368309 -.00000034  00000-0  00000-0 0  9995
2 45854  55.1854 105.6298 0009200 148.9151 211.2055  2.00566983  5029
